NORAD_CAT_ID,OBJECT_NAME,OBJECT_TYPE,EPOCH,MEAN_MOTION,ECCENTRICITY,INCLINATION,RA_OF_ASC_NODE,ARG_OF_PERICENTER,MEAN_ANOMALY,BSTAR,MEAN_MOTION_DOT,MEAN_MOTION_DDOT,TLE_LINE0,TLE_LINE1,TLE_LINE2,SEMIMAJOR_AXIS,PERIOD,APOGEE,PERIGEE,DECAYED
55931.0,STARLINK-5897,PAYLOAD,2023-04-30 16:00:00,15.44679392,0.0003586,70.0007,58.8227,266.1731,33.6358,-0.019757,-0.00844013,0.0,0 STARLINK-5897,1 55931U 23037T   23120.66667824 -.00844013  00000-0 -19757-1 0  9993,2 55931  70.0007  58.8227 0003586 266.1731  33.6358 15.44679392  7396,6810.457,93.223,434.765,429.88,0.0
55931.0,STARLINK-5897,PAYLOAD,2023-05-01 06:00:00,15.4355651,0.0003502,70.001,57.2447,273.4338,28.0951,-0.021354,-0.00886759,0.0,0 STARLINK-5897,1 55931U 23037T   23121.25001157 -.00886759  00000-0 -21354-1 0  9999,2 55931  70.0010  57.2447 0003502 273.4338  28.0951 15.43556510  7481,6813.76,93.291,438.011,433.239,0.0
55931.0,STARLINK-5897,PAYLOAD,2023-05-01 14:00:01,15.4288308,0.000342,70.001,56.3443,268.7308,84.1472,-0.021174,-0.00861497,0.0,0 STARLINK-5897,1 55931U 23037T   23121.58334491 -.00861497  00000-0 -21174-1 0  9997,2 55931  70.0010  56.3443 0003420 268.7308  84.1472 15.42883080  1300,6815.742,93.332,439.938,435.276,0.0
55931.0,STARLINK-5897,PAYLOAD,2023-05-01 22:00:00,15.42303166,0.0003508,70.0013,55.4451,270.0063,133.4067,-0.024841,-0.00980218,0.0,0 STARLINK-5897,1 55931U 23037T   23121.91667824 -.00980218  00000-0 -24841-1 0  9990,2 55931  70.0013  55.4451 0003508 270.0063 133.4067 15.42303166  1303,6817.451,93.367,441.707,436.924,0.0
55931.0,STARLINK-5897,PAYLOAD,2023-05-02 00:00:02,15.42102984,0.0003377,70.0011,55.2203,271.7602,234.25,-0.023592,-0.0092911,0.0,0 STARLINK-5897,1 55931U 23037T   23122.00002315 -.00929110  00000-0 -23592-1 0  9995,2 55931  70.0011  55.2203 0003377 271.7602 234.2500 15.42102984  7599,6818.041,93.379,442.208,437.603,0.0
55931.0,STARLINK-5897,PAYLOAD,2023-05-02 14:00:01,15.40924523,0.0003288,70.0013,53.6485,269.2833,232.9819,-0.022359,-0.00852618,0.0,0 STARLINK-5897,1 55931U 23037T   23122.58335648 -.00852618  00000-0 -22359-1 0  9994,2 55931  70.0013  53.6485 0003288 269.2833 232.9819 15.40924523  1304,6821.516,93.45,445.624,441.139,0.0
55931.0,STARLINK-5897,PAYLOAD,2023-05-02 22:00:00,15.40334078,0.0003266,70.0017,52.7518,269.2431,281.1513,-0.025989,-0.00961848,0.0,0 STARLINK-5897,1 55931U 23037T   23122.91667824 -.00961848  00000-0 -25989-1 0  9993,2 55931  70.0017  52.7518 0003266 269.2431 281.1513 15.40334078  1302,6823.26,93.486,447.353,442.896,0.0
55931.0,STARLINK-5897,PAYLOAD,2023-05-03 06:00:02,15.39648021,0.0003332,70.0015,51.8558,274.6457,323.2461,-0.024496,-0.00892117,0.0,0 STARLINK-5897,1 55931U 23037T   23123.25002315 -.00892117  00000-0 -24496-1 0  9993,2 55931  70.0015  51.8558 0003332 274.6457 323.2461 15.39648021  7799,6825.286,93.528,449.426,444.877,0.0
55931.0,STARLINK-5897,PAYLOAD,2023-05-03 14:00:01,15.38964381,0.0003309,70.0016,50.9606,269.113,15.3738,-0.023749,-0.00849092,0.0,0 STARLINK-5897,1 55931U 23037T   23123.58334491 -.00849092  00000-0 -23749-1 0  9996,2 55931  70.0016  50.9606 0003309 269.1130  15.3738 15.38964381  1301,6827.307,93.569,451.432,446.913,0.0
55931.0,STARLINK-5897,PAYLOAD,2023-05-03 22:00:00,15.38374351,0.0003365,70.002,50.0664,268.9859,61.3481,-0.027589,-0.00957623,0.0,0 STARLINK-5897,1 55931U 23037T   23123.91667824 -.00957623  00000-0 -27589-1 0  9998,2 55931  70.0020  50.0664 0003365 268.9859  61.3481 15.38374351  7896,6829.053,93.605,453.216,448.62,0.0
55931.0,STARLINK-5897,PAYLOAD,2023-05-04 14:00:01,15.37002429,0.0003258,70.0019,48.2807,269.5017,150.2925,-0.024967,-0.00838147,0.0,0 STARLINK-5897,1 55931U 23037T   23124.58335648 -.00838147  00000-0 -24967-1 0  9994,2 55931  70.0019  48.2807 0003258 269.5017 150.2925 15.37002429  7991,6833.116,93.689,457.207,452.755,0.0
55931.0,STARLINK-5897,PAYLOAD,2023-05-04 22:00:01,15.36414829,0.0003228,70.0022,47.3891,270.3515,192.9438,-0.029336,-0.00955536,0.0,0 STARLINK-5897,1 55931U 23037T   23124.91668981 -.00955536  00000-0 -29336-1 0  9997,2 55931  70.0022  47.3891 0003228 270.3515 192.9438 15.36414829  1309,6834.858,93.725,458.93,454.517,0.0
55931.0,STARLINK-5897,PAYLOAD,2023-05-05 00:00:00,15.36211458,0.0003166,70.0021,47.1664,270.6027,293.3998,-0.02742,-0.00892606,0.0,0 STARLINK-5897,1 55931U 23037T   23125.00001157 -.00892606  00000-0 -27420-1 0  9994,2 55931  70.0021  47.1664 0003166 270.6027 293.3998 15.36211458  8066,6835.461,93.737,459.491,455.162,0.0
55931.0,STARLINK-5897,PAYLOAD,2023-05-05 22:00:00,15.34450561,0.0003128,70.0022,44.7202,268.2134,320.8756,-0.030858,-0.00944629,0.0,0 STARLINK-5897,1 55931U 23037T   23125.91667824 -.00944629  00000-0 -30858-1 0  9995,2 55931  70.0022  44.7202 0003128 268.2134 320.8756 15.34450561  1304,6840.69,93.845,464.695,460.415,0.0
55931.0,STARLINK-5897,PAYLOAD,2023-05-06 02:00:01,15.3408526,0.000315,70.002,44.2762,274.74,154.6488,-0.028587,-0.00871097,0.0,0 STARLINK-5897,1 55931U 23037T   23126.08334491 -.00871097  00000-0 -28587-1 0  9999,2 55931  70.0020  44.2762 0003150 274.7400 154.6488 15.34085260  8224,6841.776,93.867,465.796,461.486,0.0
55931.0,STARLINK-5897,PAYLOAD,2023-05-06 16:00:00,15.32961087,0.0003249,70.002,42.7238,268.5753,140.2828,-0.030193,-0.00886535,0.0,0 STARLINK-5897,1 55931U 23037T   23126.66667824 -.00886535  00000-0 -30193-1 0  9991,2 55931  70.0020  42.7238 0003249 268.5753 140.2828 15.32961087  1305,6845.12,93.936,469.209,464.761,0.0
55931.0,STARLINK-5897,PAYLOAD,2023-05-07 06:00:00,15.31834377,0.0003216,70.0017,41.1738,275.3812,110.5591,-0.032542,-0.00919297,0.0,0 STARLINK-5897,1 55931U 23037T   23127.25001157 -.00919297  00000-0 -32542-1 0  9990,2 55931  70.0017  41.1738 0003216 275.3812 110.5591 15.31834377  8400,6848.476,94.005,472.544,468.139,0.0
55931.0,STARLINK-5897,PAYLOAD,2023-05-07 14:00:01,15.31141492,0.0003276,70.0017,40.2908,269.4005,153.8104,-0.030432,-0.00847121,0.0,0 STARLINK-5897,1 55931U 23037T   23127.58334491 -.00847121  00000-0 -30432-1 0  9998,2 55931  70.0017  40.2908 0003276 269.4005 153.8104 15.31141492  1304,6850.542,94.047,474.652,470.163,0.0
55931.0,STARLINK-5897,PAYLOAD,2023-05-07 22:00:00,15.3053063,0.0003193,70.0022,39.4058,270.5713,189.1115,-0.034563,-0.00935897,0.0,0 STARLINK-5897,1 55931U 23037T   23127.91667824 -.00935897  00000-0 -34563-1 0  9991,2 55931  70.0022  39.4058 0003193 270.5713 189.1115 15.30530630  1302,6852.365,94.085,476.418,472.042,0.0
55931.0,STARLINK-5897,PAYLOAD,2023-05-08 06:00:00,15.29877537,0.0003065,70.0016,38.5231,275.2264,220.1433,-0.034583,-0.00919096,0.0,0 STARLINK-5897,1 55931U 23037T   23128.25001157 -.00919096  00000-0 -34583-1 0  9995,2 55931  70.0016  38.5231 0003065 275.2264 220.1433 15.29877537  8550,6854.315,94.125,478.281,474.079,0.0
55931.0,STARLINK-5897,PAYLOAD,2023-05-08 22:00:00,15.28567625,0.0003103,70.002,36.76,268.745,295.674,-0.036275,-0.00925304,0.0,0 STARLINK-5897,1 55931U 23037T   23128.91667824 -.00925304  00000-0 -36275-1 0  9996,2 55931  70.0020  36.7600 0003103 268.7450 295.6740 15.28567625  1309,6858.23,94.206,482.223,477.967,0.0
55931.0,STARLINK-5897,PAYLOAD,2023-05-09 06:00:00,15.27925781,0.0003094,70.0015,35.8798,271.3998,326.3558,-0.037146,-0.00940449,0.0,0 STARLINK-5897,1 55931U 23037T   23129.25001157 -.00940449  00000-0 -37146-1 0  9990,2 55931  70.0015  35.8798 0003094 271.3998 326.3558 15.27925781  8718,6860.151,94.245,484.138,479.893,0.0
55931.0,STARLINK-5897,PAYLOAD,2023-05-09 14:00:01,15.27233563,0.0003202,70.0015,35.0005,264.664,5.6655,-0.034736,-0.00856325,0.0,0 STARLINK-5897,1 55931U 23037T   23129.58334491 -.00856325  00000-0 -34736-1 0  9997,2 55931  70.0015  35.0005 0003202 264.6640   5.6655 15.27233563  1304,6862.224,94.288,486.286,481.891,0.0
55931.0,STARLINK-5897,PAYLOAD,2023-05-10 14:00:01,15.25279286,0.000328,70.0013,32.3678,265.3995,97.9301,-0.03703,-0.0086008,0.0,0 STARLINK-5897,1 55931U 23037T   23130.58334491 -.00860080  00000-0 -37030-1 0  9992,2 55931  70.0013  32.3678 0003280 265.3995  97.9301 15.25279286  1307,6868.084,94.409,492.202,487.696,0.0
55931.0,STARLINK-5897,PAYLOAD,2023-05-10 22:00:00,15.24649776,0.0003286,70.0016,31.492,270.5294,122.2359,-0.040485,-0.00929043,0.0,0 STARLINK-5897,1 55931U 23037T   23130.91667824 -.00929043  00000-0 -40485-1 0  9991,2 55931  70.0016  31.4920 0003286 270.5294 122.2359 15.24649776  1305,6869.974,94.448,494.097,489.582,0.0
55931.0,STARLINK-5897,PAYLOAD,2023-05-11 14:00:01,15.23324415,0.0003195,70.0012,29.743,269.4561,179.8324,-0.039426,-0.00863348,0.0,0 STARLINK-5897,1 55931U 23037T   23131.58334491 -.00863348  00000-0 -39426-1 0  9994,2 55931  70.0012  29.7430 0003195 269.4561 179.8324 15.23324415  1309,6873.959,94.53,498.02,493.627,0.0
55931.0,STARLINK-5897,PAYLOAD,2023-05-11 22:00:00,15.22692376,0.0003168,70.0015,28.8697,272.2304,204.149,-0.042907,-0.00928773,0.0,0 STARLINK-5897,1 55931U 23037T   23131.91667824 -.00928773  00000-0 -42907-1 0  9992,2 55931  70.0015  28.8697 0003168 272.2304 204.1490 15.22692376  1303,6875.861,94.569,499.904,495.547,0.0
55931.0,STARLINK-5897,PAYLOAD,2023-05-12 12:00:00,15.21515033,0.0003178,70.0014,27.3437,269.8747,162.0324,-0.040681,-0.00845786,0.0,0 STARLINK-5897,1 55931U 23037T   23132.50001157 -.00845786  00000-0 -40681-1 0  9998,2 55931  70.0014  27.3437 0003178 269.8747 162.0324 15.21515033  1303,6879.407,94.643,503.458,499.086,0.0
55931.0,STARLINK-5897,PAYLOAD,2023-05-12 22:00:00,15.20730857,0.0003098,70.0016,26.2554,270.6977,282.255,-0.045054,-0.00921016,0.0,0 STARLINK-5897,1 55931U 23037T   23132.91667824 -.00921016  00000-0 -45054-1 0  9992,2 55931  70.0016  26.2554 0003098 270.6977 282.2550 15.20730857  1307,6881.772,94.691,505.769,501.505,0.0
55931.0,STARLINK-5897,PAYLOAD,2023-05-13 00:00:02,15.20551905,0.0003156,70.0016,26.0379,271.0372,18.044,-0.043473,-0.00886599,0.0,0 STARLINK-5897,1 55931U 23037T   23133.00002315 -.00886599  00000-0 -43473-1 0  9990,2 55931  70.0016  26.0379 0003156 271.0372  18.0440 15.20551905  9282,6882.312,94.702,506.349,502.005,0.0
